{
  "type": "FeatureCollection",
  "features": [
    {
      "type": "Feature",
      "properties": {
        "norad_id": 32461,
        "name": "FENGYUN 1C DEB",
        "group": "fengyun-1c-debris",
        "lat": -9.278636484247198,
        "lon": 11.57355653017392,
        "alt_km": 869.6699473806575,
        "timestamp": "2025-12-02T10:50:47.560996+00:00",
        "meta_object_name": "FENGYUN 1C DEB",
        "meta_object_id": "1999-025DBZ",
        "meta_epoch": "2025-12-02T01:56:33.125280",
        "meta_mean_motion": 13.72792597,
        "meta_eccentricity": 0.0231919,
        "meta_inclination": 98.3343,
        "meta_ra_of_asc_node": 192.6225,
        "meta_arg_of_pericenter": 145.7943,
        "meta_mean_anomaly": 9.1239,
        "meta_ephemeris_type": 0,
        "meta_classification_type": "U",
        "meta_norad_cat_id": 32461,
        "meta_element_set_no": 999,
        "meta_rev_at_epoch": 67148,
        "meta_bstar": 0.0011892,
        "meta_mean_motion_dot": 1.292e-05,
        "meta_mean_motion_ddot": 0,
        "tle_line1": "1 32461U 99025DBZ 25336.08093895  .00001292  00000+0  11892-2 0  9998",
        "tle_line2": "2 32461  98.3343 192.6225 0231919 145.7943   9.1239 13.72792597671485"
      },
      "geometry": {
        "type": "Point",
        "coordinates": [
          11.57355653017392,
          -9.278636484247198
        ]
      }
    },
    {
      "type": "Feature",
      "properties": {
        "norad_id": 32464,
        "name": "FENGYUN 1C DEB",
        "group": "fengyun-1c-debris",
        "lat": 25.282964882128756,
        "lon": -175.0605190028183,
        "alt_km": 624.4787564411045,
        "timestamp": "2025-12-02T10:50:47.561006+00:00",
        "meta_object_name": "FENGYUN 1C DEB",
        "meta_object_id": "1999-025DCC",
        "meta_epoch": "2025-12-01T19:39:49.615200",
        "meta_mean_motion": 14.92402784,
        "meta_eccentricity": 0.0113141,
        "meta_inclination": 97.3575,
        "meta_ra_of_asc_node": 0.8492,
        "meta_arg_of_pericenter": 273.2898,
        "meta_mean_anomaly": 85.5384,
        "meta_ephemeris_type": 0,
        "meta_classification_type": "U",
        "meta_norad_cat_id": 32464,
        "meta_element_set_no": 999,
        "meta_rev_at_epoch": 60629,
        "meta_bstar": 0.0013747,
        "meta_mean_motion_dot": 0.00015906,
        "meta_mean_motion_ddot": 0,
        "tle_line1": "1 32464U 99025DCC 25335.81932425  .00015906  00000+0  13747-2 0  9990",
        "tle_line2": "2 32464  97.3575   0.8492 0113141 273.2898  85.5384 14.92402784606297"
      },
      "geometry": {
        "type": "Point",
        "coordinates": [
          -175.0605190028183,
          25.282964882128756
        ]
      }
    },
    {
      "type": "Feature",
      "properties": {
        "norad_id": 33502,
        "name": "FENGYUN 1C DEB",
        "group": "fengyun-1c-debris",
        "lat": 47.57948536347807,
        "lon": 108.9903700132903,
        "alt_km": 779.8324071248726,
        "timestamp": "2025-12-02T10:50:47.561016+00:00",
        "meta_object_name": "FENGYUN 1C DEB",
        "meta_object_id": "1999-025DCF",
        "meta_epoch": "2025-12-01T19:16:52.233312",
        "meta_mean_motion": 14.21679352,
        "meta_eccentricity": 0.0078718,
        "meta_inclination": 99.0241,
        "meta_ra_of_asc_node": 278.3121,
        "meta_arg_of_pericenter": 184.9173,
        "meta_mean_anomaly": 229.8443,
        "meta_ephemeris_type": 0,
        "meta_classification_type": "U",
        "meta_norad_cat_id": 33502,
        "meta_element_set_no": 999,
        "meta_rev_at_epoch": 86800,
        "meta_bstar": 0.0024354,
        "meta_mean_motion_dot": 5.477e-05,
        "meta_mean_motion_ddot": 0,
        "tle_line1": "1 33502U 99025DCF 25335.80338233  .00005477  00000+0  24354-2 0  9998",
        "tle_line2": "2 33502  99.0241 278.3121 0078718 184.9173 229.8443 14.21679352868002"
      },
      "geometry": {
        "type": "Point",
        "coordinates": [
          108.9903700132903,
          47.57948536347807
        ]
      }
    },
    {
      "type": "Feature",
      "properties": {
        "norad_id": 33599,
        "name": "FENGYUN 1C DEB",
        "group": "fengyun-1c-debris",
        "lat": -34.83405368002877,
        "lon": -139.08545797912421,
        "alt_km": 574.4709368905806,
        "timestamp": "2025-12-02T10:50:47.561026+00:00",
        "meta_object_name": "FENGYUN 1C DEB",
        "meta_object_id": "1999-025DCG",
        "meta_epoch": "2025-11-20T10:50:20.760288",
        "meta_mean_motion": 15.13875085,
        "meta_eccentricity": 0.01305425,
        "meta_inclination": 96.6164,
        "meta_ra_of_asc_node": 35.1071,
        "meta_arg_of_pericenter": 19.0845,
        "meta_mean_anomaly": 341.5213,
        "meta_ephemeris_type": 0,
        "meta_classification_type": "U",
        "meta_norad_cat_id": 33599,
        "meta_element_set_no": 999,
        "meta_rev_at_epoch": 65666,
        "meta_bstar": 0.0014461331,
        "meta_mean_motion_dot": 0.00032405,
        "meta_mean_motion_ddot": 0,
        "tle_line1": "1 33599U 99025DCG 25324.45162917  .00032405  00000+0  14461-2 0  9996",
        "tle_line2": "2 33599  96.6164  35.1071 0130542  19.0845 341.5213 15.13875085656663"
      },
      "geometry": {
        "type": "Point",
        "coordinates": [
          -139.08545797912421,
          -34.83405368002877
        ]
      }
    },
    {
      "type": "Feature",
      "properties": {
        "norad_id": 33601,
        "name": "FENGYUN 1C DEB",
        "group": "fengyun-1c-debris",
        "lat": -34.74603380068392,
        "lon": 139.26592113320203,
        "alt_km": 975.2201017069683,
        "timestamp": "2025-12-02T10:50:47.561036+00:00",
        "meta_object_name": "FENGYUN 1C DEB",
        "meta_object_id": "1999-025DCJ",
        "meta_epoch": "2025-11-28T21:43:48.473760",
        "meta_mean_motion": 14.07801571,
        "meta_eccentricity": 0.01586414,
        "meta_inclination": 98.3138,
        "meta_ra_of_asc_node": 130.1771,
        "meta_arg_of_pericenter": 181.8859,
        "meta_mean_anomaly": 178.1734,
        "meta_ephemeris_type": 0,
        "meta_classification_type": "U",
        "meta_norad_cat_id": 33601,
        "meta_element_set_no": 999,
        "meta_rev_at_epoch": 90485,
        "meta_bstar": 0.0013995386,
        "meta_mean_motion_dot": 2.622e-05,
        "meta_mean_motion_ddot": 0,
        "tle_line1": "1 33601U 99025DCJ 25332.90542215  .00002622  00000+0  13995-2 0  9991",
        "tle_line2": "2 33601  98.3138 130.1771 0158641 181.8859 178.1734 14.07801571904853"
      },
      "geometry": {
        "type": "Point",
        "coordinates": [
          139.26592113320203,
          -34.74603380068392
        ]
      }
    },
    {
      "type": "Feature",
      "properties": {
        "norad_id": 33603,
        "name": "FENGYUN 1C DEB",
        "group": "fengyun-1c-debris",
        "lat": -34.97914864077639,
        "lon": 84.9260264940493,
        "alt_km": 687.0235835076373,
        "timestamp": "2025-12-02T10:50:47.561046+00:00",
        "meta_object_name": "FENGYUN 1C DEB",
        "meta_object_id": "1999-025DCL",
        "meta_epoch": "2025-11-30T01:06:04.312800",
        "meta_mean_motion": 14.79838523,
        "meta_eccentricity": 0.0220778,
        "meta_inclination": 98.8022,
        "meta_ra_of_asc_node": 268.5131,
        "meta_arg_of_pericenter": 112.5459,
        "meta_mean_anomaly": 249.9278,
        "meta_ephemeris_type": 0,
        "meta_classification_type": "U",
        "meta_norad_cat_id": 33603,
        "meta_element_set_no": 999,
        "meta_rev_at_epoch": 98672,
        "meta_bstar": 0.00019336123,
        "meta_mean_motion_dot": 2.131e-05,
        "meta_mean_motion_ddot": 0,
        "tle_line1": "1 33603U 99025DCL 25334.04588325  .00002131  00000+0  19336-3 0  9993",
        "tle_line2": "2 33603  98.8022 268.5131 0220778 112.5459 249.9278 14.79838523986728"
      },
      "geometry": {
        "type": "Point",
        "coordinates": [
          84.9260264940493,
          -34.97914864077639
        ]
      }
    },
    {
      "type": "Feature",
      "properties": {
        "norad_id": 33605,
        "name": "FENGYUN 1C DEB",
        "group": "fengyun-1c-debris",
        "lat": -79.07097987511933,
        "lon": 103.39886705636259,
        "alt_km": 913.3044149199113,
        "timestamp": "2025-12-02T10:50:47.561056+00:00",
        "meta_object_name": "FENGYUN 1C DEB",
        "meta_object_id": "1999-025DCN",
        "meta_epoch": "2025-11-29T06:37:27.772032",
        "meta_mean_motion": 14.07732345,
        "meta_eccentricity": 0.00571999,
        "meta_inclination": 98.6988,
        "meta_ra_of_asc_node": 332.793,
        "meta_arg_of_pericenter": 112.5488,
        "meta_mean_anomaly": 264.4464,
        "meta_ephemeris_type": 0,
        "meta_classification_type": "U",
        "meta_norad_cat_id": 33605,
        "meta_element_set_no": 999,
        "meta_rev_at_epoch": 59629,
        "meta_bstar": 0.00056176503,
        "meta_mean_motion_dot": 9.23e-06,
        "meta_mean_motion_ddot": 0,
        "tle_line1": "1 33605U 99025DCN 25333.27601588  .00000923  00000+0  56177-3 0  9997",
        "tle_line2": "2 33605  98.6988 332.7930 0057199 112.5488 264.4464 14.07732345596291"
      },
      "geometry": {
        "type": "Point",
        "coordinates": [
          103.39886705636259,
          -79.07097987511933
        ]
      }
    }
  ]
}